start=new Date('2023-03-24T00:00:00.000Z').valueOf();
sats=[{"MEAN_ANOMALY":"282.5161","MEAN_ELEMENT_THEORY":"SGP4","COUNTRY_CODE":"US","EPOCH":"2023-03-23T21:52:14.503008","REF_FRAME":"TEME","ECCENTRICITY":"0.00009640","OBJECT_TYPE":"PAYLOAD","TLE_LINE2":"2 52584  53.2141 295.4146 0000964  77.5939 282.5161 15.08844243 48277","LAUNCH_DATE":"2022-05-13","PERIAPSIS":"539.066","GP_ID":"228739525","ELEMENT_SET_NO":"999","ARG_OF_PERICENTER":"77.5939","MEAN_MOTION_DDOT":"0.0000000000000","INCLINATION":"53.2141","SITE":"AFWTR","FILE":"3868816","APOAPSIS":"540.399","OBJECT_ID":"2022-051BA","RA_OF_ASC_NODE":"295.4146","NORAD_CAT_ID":"52584","SEMIMAJOR_AXIS":"6917.867","TLE_LINE1":"1 52584U 22051BA  23082.91127897  .00002267  00000-0  16048-3 0  9992","REV_AT_EPOCH":"4827","CENTER_NAME":"EARTH","MEAN_MOTION_DOT":"0.00002267","EPHEMERIS_TYPE":"0","RCS_SIZE":"LARGE","TIME_SYSTEM":"UTC","PERIOD":"95.437","BSTAR":"0.00016048000000","OBJECT_NAME":"STARLINK-3922","DECAY_DATE":null,"CLASSIFICATION_TYPE":"U","MEAN_MOTION":"15.08844243"},{"TIME_SYSTEM":"UTC","PERIOD":"95.437","BSTAR":"0.00131310000000","OBJECT_NAME":"STARLINK-3906","DECAY_DATE":null,"CLASSIFICATION_TYPE":"U","MEAN_MOTION":"15.08846510","SEMIMAJOR_AXIS":"6917.860","TLE_LINE1":"1 52585U 22051BB  23082.89751849  .00020675  00000-0  13131-2 0  9992","REV_AT_EPOCH":"4827","CENTER_NAME":"EARTH","MEAN_MOTION_DOT":"0.00020675","EPHEMERIS_TYPE":"0","RCS_SIZE":"LARGE","LAUNCH_DATE":"2022-05-13","PERIAPSIS":"539.050","GP_ID":"228739774","ELEMENT_SET_NO":"999","ARG_OF_PERICENTER":"78.6416","MEAN_MOTION_DDOT":"0.0000000000000","INCLINATION":"53.2145","SITE":"AFWTR","OBJECT_ID":"2022-051BB","FILE":"3868816","APOAPSIS":"540.401","NORAD_CAT_ID":"52585","RA_OF_ASC_NODE":"295.4855","MEAN_ELEMENT_THEORY":"SGP4","MEAN_ANOMALY":"281.4685","COUNTRY_CODE":"US","EPOCH":"2023-03-23T21:32:25.597536","REF_FRAME":"TEME","ECCENTRICITY":"0.00009770","OBJECT_TYPE":"PAYLOAD","TLE_LINE2":"2 52585  53.2145 295.4855 0000977  78.6416 281.4685 15.08846510 48273"},{"SEMIMAJOR_AXIS":"6917.872","TLE_LINE1":"1 52586U 22051BC  23082.90023771  .00000435  00000-0  45412-4 0  9992","REV_AT_EPOCH":"4827","CENTER_NAME":"EARTH","EPHEMERIS_TYPE":"0","MEAN_MOTION_DOT":"0.00000435","RCS_SIZE":"LARGE","TIME_SYSTEM":"UTC","PERIOD":"95.437","DECAY_DATE":null,"OBJECT_NAME":"STARLINK-3910","BSTAR":"0.00004541200000","CLASSIFICATION_TYPE":"U","MEAN_MOTION":"15.08842817","MEAN_ANOMALY":"284.2845","MEAN_ELEMENT_THEORY":"SGP4","COUNTRY_CODE":"US","REF_FRAME":"TEME","EPOCH":"2023-03-23T21:36:20.538144","ECCENTRICITY":"0.00011720","TLE_LINE2":"2 52586  53.2162 295.4598 0001172  75.8277 284.2845 15.08842817 48274","OBJECT_TYPE":"PAYLOAD","LAUNCH_DATE":"2022-05-13","GP_ID":"228740526","PERIAPSIS":"538.926","ARG_OF_PERICENTER":"75.8277","ELEMENT_SET_NO":"999","INCLINATION":"53.2162","MEAN_MOTION_DDOT":"0.0000000000000","FILE":"3868816","OBJECT_ID":"2022-051BC","APOAPSIS":"540.548","SITE":"AFWTR","NORAD_CAT_ID":"52586","RA_OF_ASC_NODE":"295.4598"},{"LAUNCH_DATE":"2022-05-13","ARG_OF_PERICENTER":"80.0446","ELEMENT_SET_NO":"999","GP_ID":"228716080","PERIAPSIS":"539.225","APOAPSIS":"540.312","FILE":"3868767","OBJECT_ID":"2022-051BD","SITE":"AFWTR","INCLINATION":"53.2137","MEAN_MOTION_DDOT":"0.0000000000000","NORAD_CAT_ID":"52587","RA_OF_ASC_NODE":"295.4939","COUNTRY_CODE":"US","MEAN_ANOMALY":"280.0635","MEAN_ELEMENT_THEORY":"SGP4","REF_FRAME":"TEME","EPOCH":"2023-03-23T21:25:44.277312","ECCENTRICITY":"0.00007850","TLE_LINE2":"2 52587  53.2137 295.4939 0000785  80.0446 280.0635 15.08832424 48343","OBJECT_TYPE":"PAYLOAD","PERIOD":"95.438","TIME_SYSTEM":"UTC","DECAY_DATE":null,"BSTAR":"-0.00015346000000","OBJECT_NAME":"STARLINK-3867","CLASSIFICATION_TYPE":"U","MEAN_MOTION":"15.08832424","TLE_LINE1":"1 52587U 22051BD  23082.89287358 -.00002729  00000-0 -15346-3 0  9996","SEMIMAJOR_AXIS":"6917.904","REV_AT_EPOCH":"4834","CENTER_NAME":"EARTH","RCS_SIZE":"LARGE","EPHEMERIS_TYPE":"0","MEAN_MOTION_DOT":"-0.00002729"},{"REV_AT_EPOCH":"4834","SEMIMAJOR_AXIS":"6917.881","TLE_LINE1":"1 52588U 22051BE  23082.88919915  .00002435  00000-0  17103-3 0  9992","MEAN_MOTION_DOT":"0.00002435","EPHEMERIS_TYPE":"0","RCS_SIZE":"LARGE","CENTER_NAME":"EARTH","DECAY_DATE":null,"OBJECT_NAME":"STARLINK-3917","BSTAR":"0.00017103000000","TIME_SYSTEM":"UTC","PERIOD":"95.438","MEAN_MOTION":"15.08839954","CLASSIFICATION_TYPE":"U","REF_FRAME":"TEME","EPOCH":"2023-03-23T21:20:26.806560","MEAN_ELEMENT_THEORY":"SGP4","MEAN_ANOMALY":"270.2110","COUNTRY_CODE":"US","TLE_LINE2":"2 52588  53.2133 295.5174 0001182  89.9018 270.2110 15.08839954 48341","OBJECT_TYPE":"PAYLOAD","ECCENTRICITY":"0.00011820","GP_ID":"228716579","PERIAPSIS":"538.928","ARG_OF_PERICENTER":"89.9018","ELEMENT_SET_NO":"999","LAUNCH_DATE":"2022-05-13","NORAD_CAT_ID":"52588","RA_OF_ASC_NODE":"295.5174","INCLINATION":"53.2133","MEAN_MOTION_DDOT":"0.0000000000000","OBJECT_ID":"2022-051BE","FILE":"3868767","APOAPSIS":"540.563","SITE":"AFWTR"},{"MEAN_MOTION_DOT":"0.00001077","EPHEMERIS_TYPE":"0","RCS_SIZE":"LARGE","CENTER_NAME":"EARTH","REV_AT_EPOCH":"4818","SEMIMAJOR_AXIS":"6917.847","TLE_LINE1":"1 52598U 22052A   23082.33121218  .00001077  00000-0  85742-4 0  9991","MEAN_MOTION":"15.08850775","CLASSIFICATION_TYPE":"U","DECAY_DATE":null,"BSTAR":"0.00008574200000","OBJECT_NAME":"STARLINK-4019","TIME_SYSTEM":"UTC","PERIOD":"95.437","TLE_LINE2":"2 52598  53.2149 103.0145 0001350 101.9304 258.1840 15.08850775 48181","OBJECT_TYPE":"PAYLOAD","ECCENTRICITY":"0.00013500","REF_FRAME":"TEME","EPOCH":"2023-03-23T07:56:56.732352","MEAN_ELEMENT_THEORY":"SGP4","MEAN_ANOMALY":"258.1840","COUNTRY_CODE":"US","RA_OF_ASC_NODE":"103.0145","NORAD_CAT_ID":"52598","INCLINATION":"53.2149","MEAN_MOTION_DDOT":"0.0000000000000","FILE":"3868494","APOAPSIS":"540.646","OBJECT_ID":"2022-052A","SITE":"AFETR","GP_ID":"228707186","PERIAPSIS":"538.779","ARG_OF_PERICENTER":"101.9304","ELEMENT_SET_NO":"999","LAUNCH_DATE":"2022-05-14"},{"EPHEMERIS_TYPE":"0","MEAN_MOTION_DOT":"0.00002877","RCS_SIZE":"LARGE","CENTER_NAME":"EARTH","REV_AT_EPOCH":"4825","TLE_LINE1":"1 52599U 22052B   23082.31880710  .00002877  00000-0  19876-3 0  9992","SEMIMAJOR_AXIS":"6917.856","MEAN_MOTION":"15.08848015","CLASSIFICATION_TYPE":"U","OBJECT_NAME":"STARLINK-4024","BSTAR":"0.00019876000000","DECAY_DATE":null,"TIME_SYSTEM":"UTC","PERIOD":"95.437","OBJECT_TYPE":"PAYLOAD","TLE_LINE2":"2 52599  53.2140  98.1750 0001600  86.2727 273.8448 15.08848015 48251","ECCENTRICITY":"0.00016000","EPOCH":"2023-03-23T07:39:04.933440","REF_FRAME":"TEME","MEAN_ELEMENT_THEORY":"SGP4","MEAN_ANOMALY":"273.8448","COUNTRY_CODE":"US","NORAD_CAT_ID":"52599","RA_OF_ASC_NODE":"98.1750","MEAN_MOTION_DDOT":"0.0000000000000","INCLINATION":"53.2140","SITE":"AFETR","APOAPSIS":"540.828","FILE":"3868494","OBJECT_ID":"2022-052B","PERIAPSIS":"538.614","GP_ID":"228706448","ELEMENT_SET_NO":"999","ARG_OF_PERICENTER":"86.2727","LAUNCH_DATE":"2022-05-14"},{"MEAN_MOTION":"15.08845490","CLASSIFICATION_TYPE":"U","BSTAR":"0.00016383000000","OBJECT_NAME":"STARLINK-4026","DECAY_DATE":null,"PERIOD":"95.437","TIME_SYSTEM":"UTC","RCS_SIZE":"LARGE","MEAN_MOTION_DOT":"0.00002321","EPHEMERIS_TYPE":"0","CENTER_NAME":"EARTH","REV_AT_EPOCH":"4832","SEMIMAJOR_AXIS":"6917.864","TLE_LINE1":"1 52600U 22052C   23082.76039545  .00002321  00000-0  16383-3 0  9990","NORAD_CAT_ID":"52600","RA_OF_ASC_NODE":"96.0899","SITE":"AFETR","OBJECT_ID":"2022-052C","FILE":"3868816","APOAPSIS":"540.743","MEAN_MOTION_DDOT":"0.0000000000000","INCLINATION":"53.2146","ELEMENT_SET_NO":"999","ARG_OF_PERICENTER":"86.2371","PERIAPSIS":"538.714","GP_ID":"228741255","LAUNCH_DATE":"2022-05-14","OBJECT_TYPE":"PAYLOAD","TLE_LINE2":"2 52600  53.2146  96.0899 0001466  86.2371 273.8789 15.08845490 48326","ECCENTRICITY":"0.00014660","EPOCH":"2023-03-23T18:14:58.166880","REF_FRAME":"TEME","COUNTRY_CODE":"US","MEAN_ELEMENT_THEORY":"SGP4","MEAN_ANOMALY":"273.8789"},{"LAUNCH_DATE":"2022-05-14","PERIAPSIS":"538.798","GP_ID":"228739526","ELEMENT_SET_NO":"999","ARG_OF_PERICENTER":"88.1860","MEAN_MOTION_DDOT":"0.0000000000000","INCLINATION":"53.2149","SITE":"AFETR","APOAPSIS":"540.646","FILE":"3868816","OBJECT_ID":"2022-052D","RA_OF_ASC_NODE":"96.0540","NORAD_CAT_ID":"52601","MEAN_ELEMENT_THEORY":"SGP4","MEAN_ANOMALY":"271.9285","COUNTRY_CODE":"US","EPOCH":"2023-03-23T18:25:34.022496","REF_FRAME":"TEME","ECCENTRICITY":"0.00013360","OBJECT_TYPE":"PAYLOAD","TLE_LINE2":"2 52601  53.2149  96.0540 0001336  88.1860 271.9285 15.08847668 48322","TIME_SYSTEM":"UTC","PERIOD":"95.437","OBJECT_NAME":"STARLINK-4027","BSTAR":"0.00018915000000","DECAY_DATE":null,"CLASSIFICATION_TYPE":"U","MEAN_MOTION":"15.08847668","SEMIMAJOR_AXIS":"6917.857","TLE_LINE1":"1 52601U 22052D   23082.76775489  .00002724  00000-0  18915-3 0  9995","REV_AT_EPOCH":"4832","CENTER_NAME":"EARTH","EPHEMERIS_TYPE":"0","MEAN_MOTION_DOT":"0.00002724","RCS_SIZE":"LARGE"},{"INCLINATION":"53.2149","MEAN_MOTION_DDOT":"0.0000000000000","OBJECT_ID":"2022-052E","FILE":"3868816","APOAPSIS":"540.617","SITE":"AFETR","NORAD_CAT_ID":"52602","RA_OF_ASC_NODE":"96.0728","LAUNCH_DATE":"2022-05-14","GP_ID":"228739775","PERIAPSIS":"538.864","ARG_OF_PERICENTER":"80.8592","ELEMENT_SET_NO":"999","ECCENTRICITY":"0.00012670","TLE_LINE2":"2 52602  53.2149  96.0728 0001267  80.8592 279.2544 15.08841649 48327","OBJECT_TYPE":"PAYLOAD","MEAN_ANOMALY":"279.2544","MEAN_ELEMENT_THEORY":"SGP4","COUNTRY_CODE":"US","REF_FRAME":"TEME","EPOCH":"2023-03-23T18:20:16.140480","CLASSIFICATION_TYPE":"U","MEAN_MOTION":"15.08841649","TIME_SYSTEM":"UTC","PERIOD":"95.437","DECAY_DATE":null,"OBJECT_NAME":"STARLINK-4012","BSTAR":"0.00016572000000","CENTER_NAME":"EARTH","EPHEMERIS_TYPE":"0","MEAN_MOTION_DOT":"0.00002351","RCS_SIZE":"LARGE","SEMIMAJOR_AXIS":"6917.875","TLE_LINE1":"1 52602U 22052E   23082.76407570  .00002351  00000-0  16572-3 0  9992","REV_AT_EPOCH":"4832"}];
